NORAD_CAT_ID,OBJECT_NAME,OBJECT_TYPE,EPOCH,MEAN_MOTION,ECCENTRICITY,INCLINATION,RA_OF_ASC_NODE,ARG_OF_PERICENTER,MEAN_ANOMALY,BSTAR,MEAN_MOTION_DOT,MEAN_MOTION_DDOT,TLE_LINE0,TLE_LINE1,TLE_LINE2,SEMIMAJOR_AXIS,PERIOD,APOGEE,PERIGEE,DECAYED
55659.0,STARLINK-5477,PAYLOAD,2023-12-06 13:18:18,14.98324374,0.0002865,70.0044,82.542,229.8809,130.2099,0.00012783,1.432e-05,0.0,0 STARLINK-5477,1 55659U 23021AH  23340.55438430  .00001432  00000-0  12783-3 0  9996,2 55659  70.0044  82.5420 0002865 229.8809 130.2099 14.98324374 45836,6950.21,96.107,574.067,570.084,0.0
55659.0,STARLINK-5477,PAYLOAD,2023-12-07 11:44:10,14.98334833,0.0002951,70.0038,80.1842,234.426,125.6624,-6.7731e-05,-9.01e-06,0.0,0 STARLINK-5477,1 55659U 23021AH  23341.48901537 -.00000901  00000-0 -67731-4 0  9998,2 55659  70.0038  80.1842 0002951 234.4260 125.6624 14.98334833 45675,6950.178,96.107,574.094,569.992,0.0
55659.0,STARLINK-5477,PAYLOAD,2023-12-07 13:20:19,14.98333963,0.0002987,70.0036,80.0154,239.3971,120.6893,-7.7678e-05,-1.02e-05,0.0,0 STARLINK-5477,1 55659U 23021AH  23341.55577601 -.00001020  00000-0 -77678-4 0  9991,2 55659  70.0036  80.0154 0002987 239.3971 120.6893 14.98333963 45980,6950.181,96.107,574.122,569.97,0.0
55659.0,STARLINK-5477,PAYLOAD,2023-12-08 11:46:11,14.9833433,0.0003447,70.0049,77.6633,206.8885,153.2096,-4.0716e-05,-5.79e-06,0.0,0 STARLINK-5477,1 55659U 23021AH  23342.49040943 -.00000579  00000-0 -40716-4 0  9990,2 55659  70.0049  77.6633 0003447 206.8885 153.2096 14.98334330 45822,6950.18,96.107,574.44,569.649,0.0
55659.0,STARLINK-5477,PAYLOAD,2023-12-08 13:22:19,14.98333503,0.0003204,70.0042,77.4939,215.856,144.2384,-5.2775e-05,-7.23e-06,0.0,0 STARLINK-5477,1 55659U 23021AH  23342.55717042 -.00000723  00000-0 -52775-4 0  9997,2 55659  70.0042  77.4939 0003204 215.8560 144.2384 14.98333503 46139,6950.182,96.107,574.274,569.82,0.0
55659.0,STARLINK-5477,PAYLOAD,2023-12-08 16:34:36,14.98326481,0.0001954,70.004,77.1548,241.9644,118.1318,-8.5158e-05,-1.109e-05,0.0,0 STARLINK-5477,1 55659U 23021AH  23342.69069840 -.00001109  00000-0 -85158-4 0  9998,2 55659  70.0040  77.1548 0001954 241.9644 118.1318 14.98326481 45855,6950.204,96.107,573.427,570.711,0.0
55659.0,STARLINK-5477,PAYLOAD,2023-12-09 11:48:12,14.9833022,0.0003073,70.0012,75.1313,254.5465,105.5355,2.8009e-05,2.41e-06,0.0,0 STARLINK-5477,1 55659U 23021AH  23343.49180877  .00000241  00000-0  28009-4 0  9997,2 55659  70.0012  75.1313 0003073 254.5465 105.5355 14.98330220 45977,6950.192,96.107,574.193,569.921,0.0
55659.0,STARLINK-5477,PAYLOAD,2023-12-09 13:24:20,14.98339248,0.0002897,70.0011,74.963,251.8223,108.2621,-0.00011473,-1.462e-05,0.0,0 STARLINK-5477,1 55659U 23021AH  23343.55856672 -.00001462  00000-0 -11473-3 0  9991,2 55659  70.0011  74.9630 0002897 251.8223 108.2621 14.98339248 46280,6950.164,96.106,574.043,570.016,0.0
55659.0,STARLINK-5477,PAYLOAD,2023-12-10 11:50:16,14.98290654,0.0002368,70.0052,72.6106,212.7231,147.3781,-0.00053851,-6.505e-05,0.0,0 STARLINK-5477,1 55659U 23021AH  23344.49324773 -.00006505  00000-0 -53851-3 0  9996,2 55659  70.0052  72.6106 0002368 212.7231 147.3781 14.98290654 46127,6950.315,96.11,573.825,570.534,0.0
55659.0,STARLINK-5477,PAYLOAD,2023-12-10 13:26:22,14.98316832,0.0002678,70.0049,72.4415,228.7052,131.3877,-0.00024737,-3.042e-05,0.0,0 STARLINK-5477,1 55659U 23021AH  23344.55998310 -.00003042  00000-0 -24737-3 0  9991,2 55659  70.0049  72.4415 0002678 228.7052 131.3877 14.98316832 46436,6950.234,96.108,573.96,570.237,0.0
55659.0,STARLINK-5477,PAYLOAD,2023-12-10 15:02:34,14.9826923,0.0002912,70.0045,72.2725,239.3104,120.7768,-0.00078072,-9.381e-05,0.0,0 STARLINK-5477,1 55659U 23021AH  23344.62678322 -.00009381  00000-0 -78072-3 0  9990,2 55659  70.0045  72.2725 0002912 239.3104 120.7768 14.98269230 46149,6950.381,96.111,574.27,570.222,0.0
55659.0,STARLINK-5477,PAYLOAD,2023-12-11 00:39:07,14.98479796,0.0003191,70.0041,71.2613,251.4295,108.6518,0.0011035,0.0001315,0.0,0 STARLINK-5477,1 55659U 23021AH  23345.02717062  .00013150  00000-0  11035-2 0  9992,2 55659  70.0041  71.2613 0003191 251.4295 108.6518 14.98479796 46201,6949.73,96.097,573.812,569.377,0.0
55659.0,STARLINK-5477,PAYLOAD,2023-12-11 11:52:11,14.98351266,0.000274,70.0054,70.0881,214.1785,145.9198,0.00060049,7.083e-05,0.0,0 STARLINK-5477,1 55659U 23021AH  23345.49458134  .00007083  00000-0  60049-3 0  9993,2 55659  70.0054  70.0881 0002740 214.1785 145.9198 14.98351266 46274,6950.127,96.106,573.896,570.088,0.0
55659.0,STARLINK-5477,PAYLOAD,2023-12-11 13:28:22,14.98315777,0.0002732,70.0051,69.9193,213.1643,146.9345,0.00020181,2.315e-05,0.0,0 STARLINK-5477,1 55659U 23021AH  23345.56137286  .00002315  00000-0  20181-3 0  9999,2 55659  70.0051  69.9193 0002732 213.1643 146.9345 14.98315777 46583,6950.237,96.108,574.001,570.203,0.0
55659.0,STARLINK-5477,PAYLOAD,2023-12-11 15:04:37,14.98220362,0.0002598,70.0048,69.7506,234.4648,125.6269,-0.00087772,-0.0001052,0.0,0 STARLINK-5477,1 55659U 23021AH  23345.62821496 -.00010520  00000-0 -87772-3 0  9997,2 55659  70.0048  69.7506 0002598 234.4648 125.6269 14.98220362 46298,6950.532,96.114,574.203,570.591,0.0
55659.0,STARLINK-5477,PAYLOAD,2023-12-12 03:53:42,14.98237978,0.0003229,70.0044,68.4014,239.9575,120.1264,-0.001346,-0.00016079,0.0,0 STARLINK-5477,1 55659U 23021AH  23346.16229393 -.00016079  00000-0 -13460-2 0  9992,2 55659  70.0044  68.4014 0003229 239.9575 120.1264 14.98237978 46370,6950.477,96.113,574.587,570.098,0.0
55659.0,STARLINK-5477,PAYLOAD,2023-12-12 11:54:15,14.98320226,0.0002609,70.0022,67.5591,251.2501,108.8375,5.4683e-05,5.59e-06,0.0,0 STARLINK-5477,1 55659U 23021AH  23346.49601243  .00000559  00000-0  54683-4 0  9994,2 55659  70.0022  67.5591 0002609 251.2501 108.8375 14.98320226 46424,6950.223,96.108,573.901,570.275,0.0
55659.0,STARLINK-5477,PAYLOAD,2023-12-12 13:30:23,14.98321391,0.0002757,70.0018,67.3905,255.5911,104.4943,4.5037e-05,4.44e-06,0.0,0 STARLINK-5477,1 55659U 23021AH  23346.56277207  .00000444  00000-0  45037-4 0  9997,2 55659  70.0018  67.3905 0002757 255.5911 104.4943 14.98321391 46733,6950.22,96.108,574.001,570.168,0.0
55659.0,STARLINK-5477,PAYLOAD,2023-12-12 15:06:31,14.98323216,0.0002903,70.0015,67.2208,290.0902,69.9944,5.3878e-05,5.5e-06,0.0,0 STARLINK-5477,1 55659U 23021AH  23346.62953423  .00000550  00000-0  53878-4 0  9995,2 55659  70.0015  67.2208 0002903 290.0902  69.9944 14.98323216 46747,6950.214,96.107,574.097,570.061,0.0
55659.0,STARLINK-5477,PAYLOAD,2023-12-13 11:56:15,14.98334688,0.0002772,70.0019,65.0342,239.6723,120.4162,5.557e-05,5.7e-06,0.0,0 STARLINK-5477,1 55659U 23021AH  23347.49740168  .00000570  00000-0  55570-4 0  9994,2 55659  70.0019  65.0342 0002772 239.6723 120.4162 14.98334688 46571,6950.178,96.107,573.97,570.117,0.0
55659.0,STARLINK-5477,PAYLOAD,2023-12-13 13:32:23,14.98334432,0.0002754,70.0016,64.8652,243.6937,116.3939,5.9745e-05,6.2e-06,0.0,0 STARLINK-5477,1 55659U 23021AH  23347.56416172  .00000620  00000-0  59745-4 0  9991,2 55659  70.0016  64.8652 0002754 243.6937 116.3939 14.98334432 46888,6950.179,96.107,573.958,570.13,0.0
55659.0,STARLINK-5477,PAYLOAD,2023-12-13 15:08:31,14.98335622,0.0002816,70.0012,64.6958,249.4064,110.6793,5.4218e-05,5.54e-06,0.0,0 STARLINK-5477,1 55659U 23021AH  23347.63092110  .00000554  00000-0  54218-4 0  9997,2 55659  70.0012  64.6958 0002816 249.4064 110.6793 14.98335622 46893,6950.176,96.107,573.998,570.083,0.0
55659.0,STARLINK-5477,PAYLOAD,2023-12-14 11:58:16,14.98326217,0.0003168,70.0016,62.5097,256.2337,103.847,1.1894e-05,4.9e-07,0.0,0 STARLINK-5477,1 55659U 23021AH  23348.49880683  .00000049  00000-0  11894-4 0  9994,2 55659  70.0016  62.5097 0003168 256.2337 103.8470 14.98326217 46726,6950.205,96.107,574.271,569.868,0.0
55659.0,STARLINK-5477,PAYLOAD,2023-12-14 13:34:24,14.98322226,0.0003195,70.0005,62.3405,248.7425,111.3393,0.00013162,1.477e-05,0.0,0 STARLINK-5477,1 55659U 23021AH  23348.56556648  .00001477  00000-0  13162-3 0  9998,2 55659  70.0005  62.3405 0003195 248.7425 111.3393 14.98322226 47038,6950.217,96.107,574.303,569.861,0.0
55659.0,STARLINK-5477,PAYLOAD,2023-12-14 15:10:33,14.98323449,0.0003163,70.0006,62.1701,254.9714,105.1095,8.901e-05,9.69e-06,0.0,0 STARLINK-5477,1 55659U 23021AH  23348.63232726  .00000969  00000-0  89010-4 0  9995,2 55659  70.0006  62.1701 0003163 254.9714 105.1095 14.98323449 47040,6950.213,96.107,574.277,569.88,0.0
55659.0,STARLINK-5477,PAYLOAD,2023-12-15 12:00:17,14.98332152,0.0003094,70.0,59.9826,260.8756,99.2053,-6.4127e-05,-8.58e-06,0.0,0 STARLINK-5477,1 55659U 23021AH  23349.50020569 -.00000858  00000-0 -64127-4 0  9993,2 55659  70.0000  59.9826 0003094 260.8756  99.2053 14.98332152 46879,6950.186,96.107,574.202,569.901,0.0
55659.0,STARLINK-5477,PAYLOAD,2023-12-15 13:36:25,14.98332669,0.000315,69.9999,59.8143,261.1984,98.8819,-5.9473e-05,-8.03e-06,0.0,0 STARLINK-5477,1 55659U 23021AH  23349.56696511 -.00000803  00000-0 -59473-4 0  9993,2 55659  69.9999  59.8143 0003150 261.1984  98.8819 14.98332669 47187,6950.185,96.107,574.239,569.86,0.0
55659.0,STARLINK-5477,PAYLOAD,2023-12-15 15:12:33,14.98330974,0.0003141,69.9998,59.6452,262.1665,97.9138,-4.0842e-05,-5.8e-06,0.0,0 STARLINK-5477,1 55659U 23021AH  23349.63372601 -.00000580  00000-0 -40842-4 0  9994,2 55659  69.9998  59.6452 0003141 262.1665  97.9138 14.98330974 47196,6950.19,96.107,574.238,569.872,0.0
55659.0,STARLINK-5477,PAYLOAD,2023-12-16 12:02:20,14.9830456,0.0002818,70.0003,57.457,258.0872,101.9971,-0.00018858,-2.341e-05,0.0,0 STARLINK-5477,1 55659U 23021AH  23350.50163190 -.00002341  00000-0 -18858-3 0  9991,2 55659  70.0003  57.4570 0002818 258.0872 101.9971 14.98304560 47022,6950.272,96.109,574.095,570.178,0.0
55659.0,STARLINK-5477,PAYLOAD,2023-12-16 13:38:29,14.98305043,0.0002888,70.0001,57.2885,260.9115,99.1717,-0.00018391,-2.285e-05,0.0,0 STARLINK-5477,1 55659U 23021AH  23350.56839261 -.00002285  00000-0 -18391-3 0  9995,2 55659  70.0001  57.2885 0002888 260.9115  99.1717 14.98305043 47333,6950.27,96.109,574.142,570.128,0.0
